ONEWEB-0053             
1 45157U 20008AC  26178.89002014  .00000269  00000+0  73383-3 0  9993
2 45157  87.8823  34.1515 0001916  69.5672 290.5661 13.10374440309313
ONEWEB-0054             
1 45158U 20008AD  26178.84932738 -.00000534  00000+0 -15660-2 0  9994
2 45158  87.8832  34.1442 0001898  84.9639 275.1705 13.10372085309429
ONEWEB-0056             
1 45159U 20008AE  26178.89667185  .00000660  00000+0  18538-2 0  9996
2 45159  87.8831  34.1277 0002114  87.7648 272.3721 13.10376296309580
ONEWEB-0057             
1 45160U 20008AF  26178.83755644  .00000029  00000+0  47226-4 0  9997
2 45160  87.8824  34.1517 0001945  69.3039 290.8297 13.10374506309745
ONEWEB-0058             
1 45161U 20008AG  26178.90073243  .00000617  00000+0  17308-2 0  9993
2 45161  87.8818  34.1442 0001671  90.5824 269.5494 13.10371912309829
ONEWEB-0059             
1 45162U 20008AH  26178.89695585  .00000649  00000+0  18222-2 0  9992
2 45162  87.8822  34.1440 0001673  76.8059 283.3255 13.10368886309726
ONEWEB-0062             
1 45163U 20008AJ  26178.84407697 -.00000355  00000+0 -10529-2 0  9991
2 45163  87.8827  34.1431 0001796  95.9708 264.1624 13.10370175309586
ONEWEB-0065             
1 45164U 20008AK  26178.87803082  .00000824  00000+0  23242-2 0  9998
2 45164  87.8833  34.1442 0002030  77.8086 282.3269 13.10373224309288
ONEWEB-0066             
1 45424U 20020A   26178.82823875 -.00000264  00000+0 -78155-3 0  9992
2 45424  87.8879  18.9524 0001642  86.4585 273.6731 13.11417944304074
ONEWEB-0067             
1 45425U 20020B   26178.78977032  .00000289  00000+0  77821-3 0  9997
2 45425  87.8900  18.8839 0001878  82.4127 277.7214 13.11422866304123
ONEWEB-0080             
1 45426U 20020C   26178.78938991  .00000299  00000+0  80815-3 0  9997
2 45426  87.8890  18.9575 0001792  97.8771 262.2560 13.11414339304095
ONEWEB-0090             
1 45427U 20020D   26178.81820380 -.00000511  00000+0 -14791-2 0  9992
2 45427  87.8890  18.9562 0001824  90.0253 270.1084 13.11417128304063
ONEWEB-0061             
1 45428U 20020E   26178.85015000  .00000688  00000+0  19042-2 0  9999
2 45428  87.8889  18.9343 0001792  88.2110 271.9223 13.11417831304025
ONEWEB-0081             
1 45429U 20020F   26178.83163092 -.00000005  00000+0 -49296-4 0  9994
2 45429  87.8885  18.9478 0001732  82.0931 278.0393 13.11418885304136
ONEWEB-0069             
1 45430U 20020G   26178.83347114 -.00000444  00000+0 -12887-2 0  9996
2 45430  87.8885  18.9506 0001795  85.2253 274.9080 13.11414512304064
ONEWEB-0031             
1 45431U 20020H   26178.79263773  .00000173  00000+0  45371-3 0  9992
2 45431  87.8876  18.9630 0001837  94.1960 265.9378 13.11414191304045
ONEWEB-0027             
1 45432U 20020J   26178.89222283 -.00000019  00000+0 -81693-4 0  9994
2 45432  87.9132   3.7354 0002220 101.3536 258.7845 13.17651940307766
ONEWEB-0064             
1 45433U 20020K   26178.94353979  .00000298  00000+0  80562-3 0  9998
2 45433  87.8880  18.9251 0001915  92.8526 267.2821 13.11415671304098
ONEWEB-0018             
1 45434U 20020L   26178.82300312 -.00000596  00000+0 -17182-2 0  9999
2 45434  87.8885  18.9487 0001445  89.4324 270.6969 13.11417761304027
ONEWEB-0083             
1 45435U 20020M   26178.81311583 -.00000565  00000+0 -16310-2 0  9999
2 45435  87.8887  18.9448 0001757  89.7643 270.3687 13.11416874304062
ONEWEB-0095             
1 45436U 20020N   26178.80463240 -.00000328  00000+0 -96009-3 0  9998
2 45436  87.8887  18.9552 0002523  87.0873 273.0544 13.11414301304062
ONEWEB-0092             
1 45437U 20020P   26178.83502025  .00000103  00000+0  25551-3 0  9990
2 45437  87.8889  18.9404 0002032  81.9945 278.1414 13.11413839304189
ONEWEB-0085             
1 45438U 20020Q   26178.58395055 -.00000564  00000+0 -16276-2 0  9992
2 45438  87.8883  18.9967 0001800  81.4799 278.6533 13.11417570304039
ONEWEB-0096             
1 45439U 20020R   26178.81466140 -.00000466  00000+0 -13512-2 0  9994
2 45439  87.8887  18.9473 0001970  88.3275 271.8079 13.11415831304059
ONEWEB-0037             
1 45440U 20020S   26178.84395081  .00000387  00000+0  10476-2 0  9990
2 45440  87.8901  18.9141 0001908  86.9018 273.2329 13.11914492304095
ONEWEB-0042             
1 45441U 20020T   26178.80436716 -.00000318  00000+0 -93219-3 0  9991
2 45441  87.8886  18.9455 0001783  84.9046 275.2285 13.11415866304056
ONEWEB-0098             
1 45442U 20020U   26178.80026081 -.00000220  00000+0 -65640-3 0  9991
2 45442  87.8883  18.9557 0001806  90.5703 269.5632 13.11415960304031
ONEWEB-0055             
1 45443U 20020V   26178.85524648  .00000568  00000+0  15670-2 0  9999
2 45443  87.8889  18.9435 0001811  90.1332 270.0004 13.11417602304016
ONEWEB-0093             
1 45444U 20020W   26178.83537886 -.00019517  00000+0 -55353-1 0  9993
2 45444  87.8891  18.9405 0002366  86.0531 274.0867 13.11253571304078
ONEWEB-0029             
1 45445U 20020X   26178.78599537  .00000446  00000+0  12215-2 0  9999
2 45445  87.8878  18.9586 0001641  82.4982 277.6332 13.11414446304042
