OBJECT_NAME,OBJECT_ID,EPOCH,MEAN_MOTION,ECCENTRICITY,INCLINATION,RA_OF_ASC_NODE,ARG_OF_PERICENTER,MEAN_ANOMALY,EPHEMERIS_TYPE,CLASSIFICATION_TYPE,NORAD_CAT_ID,ELEMENT_SET_NO,REV_AT_EPOCH,BSTAR,MEAN_MOTION_DOT,MEAN_MOTION_DDOT
ONEWEB-0053,2020-008AC,2026-06-27T21:21:37.740096,13.10374440,.00019169,87.8823,34.1515,69.5672,290.5661,0,U,45157,999,30931,.73382932E-3,.269E-5,0
ONEWEB-0054,2020-008AD,2026-06-27T20:23:01.885632,13.10372085,.0001898,87.8832,34.1442,84.9639,275.1705,0,U,45158,999,30942,-.15659587E-2,-.534E-5,0
ONEWEB-0056,2020-008AE,2026-06-27T21:31:12.447840,13.10376296,.00021141,87.8831,34.1277,87.7648,272.3721,0,U,45159,999,30958,.18537604E-2,.66E-5,0
ONEWEB-0057,2020-008AF,2026-06-27T20:06:04.876416,13.10374506,.0001945,87.8824,34.1517,69.3039,290.8297,0,U,45160,999,30974,.47226149E-4,.29E-6,0
ONEWEB-0058,2020-008AG,2026-06-27T21:37:03.281952,13.10371912,.00016718,87.8818,34.1442,90.5824,269.5494,0,U,45161,999,30982,.17308152E-2,.617E-5,0
ONEWEB-0059,2020-008AH,2026-06-27T21:31:36.985440,13.10368886,.00016733,87.8822,34.1440,76.8059,283.3255,0,U,45162,999,30972,.18221891E-2,.649E-5,0
ONEWEB-0062,2020-008AJ,2026-06-27T20:15:28.250208,13.10370175,.00017961,87.8827,34.1431,95.9708,264.1624,0,U,45163,999,30958,-.10529455E-2,-.355E-5,0
ONEWEB-0065,2020-008AK,2026-06-27T21:04:21.862848,13.10373224,.000203,87.8833,34.1442,77.8086,282.3269,0,U,45164,999,30928,.2324156E-2,.824E-5,0
ONEWEB-0066,2020-020A,2026-06-27T19:52:39.828000,13.11417944,.00016423,87.8879,18.9524,86.4585,273.6731,0,U,45424,999,30407,-.78155463E-3,-.264E-5,0
ONEWEB-0067,2020-020B,2026-06-27T18:57:16.155648,13.11422866,.00018783,87.8900,18.8839,82.4127,277.7214,0,U,45425,999,30412,.77821476E-3,.289E-5,0
ONEWEB-0080,2020-020C,2026-06-27T18:56:43.288224,13.11414339,.00017929,87.8890,18.9575,97.8771,262.2560,0,U,45426,999,30409,.80814978E-3,.299E-5,0
ONEWEB-0090,2020-020D,2026-06-27T19:38:12.808320,13.11417128,.00018246,87.8890,18.9562,90.0253,270.1084,0,U,45427,999,30406,-.14790616E-2,-.511E-5,0
ONEWEB-0061,2020-020E,2026-06-27T20:24:12.960000,13.11417831,.00017926,87.8889,18.9343,88.2110,271.9223,0,U,45428,999,30402,.1904232E-2,.688E-5,0
ONEWEB-0081,2020-020F,2026-06-27T19:57:32.911488,13.11418885,.00017326,87.8885,18.9478,82.0931,278.0393,0,U,45429,999,30413,-.4929573E-4,-.5E-7,0
ONEWEB-0069,2020-020G,2026-06-27T20:00:11.906496,13.11414512,.00017955,87.8885,18.9506,85.2253,274.9080,0,U,45430,999,30406,-.12886625E-2,-.444E-5,0
ONEWEB-0031,2020-020H,2026-06-27T19:01:23.899872,13.11414191,.00018379,87.8876,18.9630,94.1960,265.9378,0,U,45431,999,30404,.45370669E-3,.173E-5,0
ONEWEB-0027,2020-020J,2026-06-27T21:24:48.052512,13.17651940,.00022205,87.9132,3.7354,101.3536,258.7845,0,U,45432,999,30776,-.8169291E-4,-.19E-6,0
ONEWEB-0064,2020-020K,2026-06-27T22:38:41.837856,13.11415671,.00019159,87.8880,18.9251,92.8526,267.2821,0,U,45433,999,30409,.80561892E-3,.298E-5,0
ONEWEB-0018,2020-020L,2026-06-27T19:45:07.469568,13.11417761,.00014452,87.8885,18.9487,89.4324,270.6969,0,U,45434,999,30402,-.17181798E-2,-.596E-5,0
ONEWEB-0083,2020-020M,2026-06-27T19:30:53.207712,13.11416874,.00017576,87.8887,18.9448,89.7643,270.3687,0,U,45435,999,30406,-.16310428E-2,-.565E-5,0
ONEWEB-0095,2020-020N,2026-06-27T19:18:40.239360,13.11414301,.00025232,87.8887,18.9552,87.0873,273.0544,0,U,45436,999,30406,-.96009481E-3,-.328E-5,0
ONEWEB-0092,2020-020P,2026-06-27T20:02:25.749600,13.11413839,.00020321,87.8889,18.9404,81.9945,278.1414,0,U,45437,999,30418,.25550969E-3,.103E-5,0
ONEWEB-0085,2020-020Q,2026-06-27T14:00:53.327520,13.11417570,.00018001,87.8883,18.9967,81.4799,278.6533,0,U,45438,999,30403,-.16275768E-2,-.564E-5,0
ONEWEB-0096,2020-020R,2026-06-27T19:33:06.744960,13.11415831,.00019709,87.8887,18.9473,88.3275,271.8079,0,U,45439,999,30405,-.1351203E-2,-.466E-5,0
ONEWEB-0037,2020-020S,2026-06-27T20:15:17.349984,13.11914492,.00019089,87.8901,18.9141,86.9018,273.2329,0,U,45440,999,30409,.10475908E-2,.387E-5,0
ONEWEB-0042,2020-020T,2026-06-27T19:18:17.322624,13.11415866,.00017837,87.8886,18.9455,84.9046,275.2285,0,U,45441,999,30405,-.93218558E-3,-.318E-5,0
ONEWEB-0098,2020-020U,2026-06-27T19:12:22.533984,13.11415960,.00018066,87.8883,18.9557,90.5703,269.5632,0,U,45442,999,30403,-.65639867E-3,-.22E-5,0
ONEWEB-0055,2020-020V,2026-06-27T20:31:33.295872,13.11417602,.00018115,87.8889,18.9435,90.1332,270.0004,0,U,45443,999,30401,.15670325E-2,.568E-5,0
ONEWEB-0093,2020-020W,2026-06-27T20:02:56.733504,13.11253571,.00023661,87.8891,18.9405,86.0531,274.0867,0,U,45444,999,30407,-.55352665E-1,-.19517E-3,0
ONEWEB-0029,2020-020X,2026-06-27T18:51:49.999968,13.11414446,.00016414,87.8878,18.9586,82.4982,277.6332,0,U,45445,999,30404,.1221536E-2,.446E-5,0
